FENGYUN 1C DEB          
1 32156U 99025CTA 17345.26420798  .00000122  00000-0  67199-4 0  9991
2 32156  99.2818 275.3794 0087598 158.7348 201.7507 14.27220537230848
